[{"OBJECT_NAME":"STARLINK-6092","OBJECT_ID":"2023-046AE","EPOCH":"2026-03-09T22:00:01.999584","MEAN_MOTION":15.11672663,"ECCENTRICITY":0.00015546,"INCLINATION":43,"RA_OF_ASC_NODE":144.9348,"ARG_OF_PERICENTER":278.5083,"MEAN_ANOMALY":89.5699,"EPHEMERIS_TYPE":0,"CLASSIFICATION_TYPE":"U","NORAD_CAT_ID":56121,"ELEMENT_SET_NO":999,"REV_AT_EPOCH":572,"BSTAR":0.044774283,"MEAN_MOTION_DOT":0.00833043,"MEAN_MOTION_DDOT":0},{"OBJECT_NAME":"OBJECT AA","OBJECT_ID":"2025-313AA","EPOCH":"2026-03-09T22:17:16.257696","MEAN_MOTION":15.21952623,"ECCENTRICITY":0.0014221,"INCLINATION":97.4008,"RA_OF_ASC_NODE":145.2054,"ARG_OF_PERICENTER":358.5401,"MEAN_ANOMALY":1.5791,"EPHEMERIS_TYPE":0,"CLASSIFICATION_TYPE":"U","NORAD_CAT_ID":67272,"ELEMENT_SET_NO":999,"REV_AT_EPOCH":1085,"BSTAR":0.00056563346,"MEAN_MOTION_DOT":0.00012874,"MEAN_MOTION_DDOT":0}]
